{
  "type": "FeatureCollection",
  "features": [
    {
      "type": "Feature",
      "properties": {
        "norad_id": 58647,
        "name": "TIANMU-1 13",
        "group": "weather",
        "lat": 54.67943797060272,
        "lon": -8.001718689970744,
        "alt_km": 489.9905806914585,
        "timestamp": "2025-12-08T19:31:48.474912+00:00",
        "meta_object_name": "TIANMU-1 13",
        "meta_object_id": "2023-205C",
        "meta_epoch": "2025-12-08T05:06:35.564832",
        "meta_mean_motion": 15.24438042,
        "meta_eccentricity": 0.0006113,
        "meta_inclination": 97.3621,
        "meta_ra_of_asc_node": 1.9217,
        "meta_arg_of_pericenter": 287.7902,
        "meta_mean_anomaly": 72.2668,
        "meta_ephemeris_type": 0,
        "meta_classification_type": "U",
        "meta_norad_cat_id": 58647,
        "meta_element_set_no": 999,
        "meta_rev_at_epoch": 10838,
        "meta_bstar": 0.00035690241,
        "meta_mean_motion_dot": 8.694e-05,
        "meta_mean_motion_ddot": 0,
        "tle_line1": "1 58647U 23205C   25342.21291163  .00008694  00000+0  35690-3 0  9995",
        "tle_line2": "2 58647  97.3621   1.9217 0006113 287.7902  72.2668 15.24438042108380"
      },
      "geometry": {
        "type": "Point",
        "coordinates": [
          -8.001718689970744,
          54.67943797060272
        ]
      }
    },
    {
      "type": "Feature",
      "properties": {
        "norad_id": 58648,
        "name": "TIANMU-1 14",
        "group": "weather",
        "lat": 32.995694264904344,
        "lon": -173.324254062679,
        "alt_km": 494.44901403782205,
        "timestamp": "2025-12-08T19:31:48.474921+00:00",
        "meta_object_name": "TIANMU-1 14",
        "meta_object_id": "2023-205D",
        "meta_epoch": "2025-12-08T07:51:39.698784",
        "meta_mean_motion": 15.24424604,
        "meta_eccentricity": 0.00069796,
        "meta_inclination": 97.3554,
        "meta_ra_of_asc_node": 1.3872,
        "meta_arg_of_pericenter": 292.4406,
        "meta_mean_anomaly": 67.6092,
        "meta_ephemeris_type": 0,
        "meta_classification_type": "U",
        "meta_norad_cat_id": 58648,
        "meta_element_set_no": 999,
        "meta_rev_at_epoch": 10840,
        "meta_bstar": 0.00035689042,
        "meta_mean_motion_dot": 8.692e-05,
        "meta_mean_motion_ddot": 0,
        "tle_line1": "1 58648U 23205D   25342.32754281  .00008692  00000+0  35689-3 0  9999",
        "tle_line2": "2 58648  97.3554   1.3872 0006979 292.4406  67.6092 15.24424604108400"
      },
      "geometry": {
        "type": "Point",
        "coordinates": [
          -173.324254062679,
          32.995694264904344
        ]
      }
    },
    {
      "type": "Feature",
      "properties": {
        "norad_id": 58660,
        "name": "TIANMU-1 19",
        "group": "weather",
        "lat": -5.404672018074826,
        "lon": 94.56744071389879,
        "alt_km": 486.0386134547425,
        "timestamp": "2025-12-08T19:31:48.474932+00:00",
        "meta_object_name": "TIANMU-1 19",
        "meta_object_id": "2023-208A",
        "meta_epoch": "2025-12-08T06:58:41.494656",
        "meta_mean_motion": 15.277255,
        "meta_eccentricity": 0.00040249,
        "meta_inclination": 97.4393,
        "meta_ra_of_asc_node": 93.3373,
        "meta_arg_of_pericenter": 273.0458,
        "meta_mean_anomaly": 87.032,
        "meta_ephemeris_type": 0,
        "meta_classification_type": "U",
        "meta_norad_cat_id": 58660,
        "meta_element_set_no": 999,
        "meta_rev_at_epoch": 10814,
        "meta_bstar": 0.00042588809,
        "meta_mean_motion_dot": 0.00011471,
        "meta_mean_motion_ddot": 0,
        "tle_line1": "1 58660U 23208A   25342.29075804  .00011471  00000+0  42589-3 0  9995",
        "tle_line2": "2 58660  97.4393  93.3373 0004024 273.0458  87.0320 15.27725500108147"
      },
      "geometry": {
        "type": "Point",
        "coordinates": [
          94.56744071389879,
          -5.404672018074826
        ]
      }
    },
    {
      "type": "Feature",
      "properties": {
        "norad_id": 58661,
        "name": "TIANMU-1 20",
        "group": "weather",
        "lat": 51.431552410137115,
        "lon": 84.8794755439153,
        "alt_km": 477.0569365191295,
        "timestamp": "2025-12-08T19:31:48.474941+00:00",
        "meta_object_name": "TIANMU-1 20",
        "meta_object_id": "2023-208B",
        "meta_epoch": "2025-12-08T06:44:14.199360",
        "meta_mean_motion": 15.28916519,
        "meta_eccentricity": 0.00063402,
        "meta_inclination": 97.4331,
        "meta_ra_of_asc_node": 93.7706,
        "meta_arg_of_pericenter": 284.7205,
        "meta_mean_anomaly": 75.3332,
        "meta_ephemeris_type": 0,
        "meta_classification_type": "U",
        "meta_norad_cat_id": 58661,
        "meta_element_set_no": 999,
        "meta_rev_at_epoch": 10821,
        "meta_bstar": 0.00042761596,
        "meta_mean_motion_dot": 0.00011949,
        "meta_mean_motion_ddot": 0,
        "tle_line1": "1 58661U 23208B   25342.28071990  .00011949  00000+0  42762-3 0  9990",
        "tle_line2": "2 58661  97.4331  93.7706 0006340 284.7205  75.3332 15.28916519108210"
      },
      "geometry": {
        "type": "Point",
        "coordinates": [
          84.8794755439153,
          51.431552410137115
        ]
      }
    },
    {
      "type": "Feature",
      "properties": {
        "norad_id": 58662,
        "name": "TIANMU-1 21",
        "group": "weather",
        "lat": 21.24274919472362,
        "lon": 93.28283822967292,
        "alt_km": 472.5461799621944,
        "timestamp": "2025-12-08T19:31:48.474951+00:00",
        "meta_object_name": "TIANMU-1 21",
        "meta_object_id": "2023-208C",
        "meta_epoch": "2025-12-08T06:53:28.649760",
        "meta_mean_motion": 15.31405506,
        "meta_eccentricity": 0.00059117,
        "meta_inclination": 97.438,
        "meta_ra_of_asc_node": 95.6656,
        "meta_arg_of_pericenter": 279.116,
        "meta_mean_anomaly": 80.9412,
        "meta_ephemeris_type": 0,
        "meta_classification_type": "U",
        "meta_norad_cat_id": 58662,
        "meta_element_set_no": 999,
        "meta_rev_at_epoch": 10831,
        "meta_bstar": 0.00045823062,
        "meta_mean_motion_dot": 0.00013837,
        "meta_mean_motion_ddot": 0,
        "tle_line1": "1 58662U 23208C   25342.28713715  .00013837  00000+0  45823-3 0  9998",
        "tle_line2": "2 58662  97.4380  95.6656 0005911 279.1160  80.9412 15.31405506108316"
      },
      "geometry": {
        "type": "Point",
        "coordinates": [
          93.28283822967292,
          21.24274919472362
        ]
      }
    },
    {
      "type": "Feature",
      "properties": {
        "norad_id": 58663,
        "name": "TIANMU-1 22",
        "group": "weather",
        "lat": -0.8488220419970666,
        "lon": 94.03090635116175,
        "alt_km": 485.30688182159247,
        "timestamp": "2025-12-08T19:31:48.474960+00:00",
        "meta_object_name": "TIANMU-1 22",
        "meta_object_id": "2023-208D",
        "meta_epoch": "2025-12-08T06:57:22.265856",
        "meta_mean_motion": 15.27488816,
        "meta_eccentricity": 0.00028108,
        "meta_inclination": 97.4387,
        "meta_ra_of_asc_node": 93.3975,
        "meta_arg_of_pericenter": 309.2508,
        "meta_mean_anomaly": 50.8481,
        "meta_ephemeris_type": 0,
        "meta_classification_type": "U",
        "meta_norad_cat_id": 58663,
        "meta_element_set_no": 999,
        "meta_rev_at_epoch": 10815,
        "meta_bstar": 0.00039970442,
        "meta_mean_motion_dot": 0.00010682,
        "meta_mean_motion_ddot": 0,
        "tle_line1": "1 58663U 23208D   25342.28984104  .00010682  00000+0  39970-3 0  9992",
        "tle_line2": "2 58663  97.4387  93.3975 0002810 309.2508  50.8481 15.27488816108153"
      },
      "geometry": {
        "type": "Point",
        "coordinates": [
          94.03090635116175,
          -0.8488220419970666
        ]
      }
    },
    {
      "type": "Feature",
      "properties": {
        "norad_id": 58700,
        "name": "TIANMU-1 15",
        "group": "weather",
        "lat": 10.073439455060555,
        "lon": -14.367992755203005,
        "alt_km": 496.7385667384533,
        "timestamp": "2025-12-08T19:31:48.474969+00:00",
        "meta_object_name": "TIANMU-1 15",
        "meta_object_id": "2024-004A",
        "meta_epoch": "2025-12-08T06:11:10.038912",
        "meta_mean_motion": 15.24588232,
        "meta_eccentricity": 0.00054176,
        "meta_inclination": 97.4629,
        "meta_ra_of_asc_node": 163.7438,
        "meta_arg_of_pericenter": 316.9827,
        "meta_mean_anomaly": 43.0986,
        "meta_ephemeris_type": 0,
        "meta_classification_type": "U",
        "meta_norad_cat_id": 58700,
        "meta_element_set_no": 999,
        "meta_rev_at_epoch": 10666,
        "meta_bstar": 0.00039484839,
        "meta_mean_motion_dot": 9.668e-05,
        "meta_mean_motion_ddot": 0,
        "tle_line1": "1 58700U 24004A   25342.25775508  .00009668  00000+0  39485-3 0  9995",
        "tle_line2": "2 58700  97.4629 163.7438 0005417 316.9827  43.0986 15.24588232106663"
      },
      "geometry": {
        "type": "Point",
        "coordinates": [
          -14.367992755203005,
          10.073439455060555
        ]
      }
    }
  ]
}